[{"OBJECT_NAME":"KUIPER-00011","OBJECT_ID":"2025-088D","EPOCH":"2026-03-09T06:15:09.756576","MEAN_MOTION":14.79821634,"ECCENTRICITY":9.971e-5,"INCLINATION":51.8995,"RA_OF_ASC_NODE":92.5537,"ARG_OF_PERICENTER":103.2236,"MEAN_ANOMALY":256.8837,"EPHEMERIS_TYPE":0,"CLASSIFICATION_TYPE":"U","NORAD_CAT_ID":63727,"ELEMENT_SET_NO":999,"REV_AT_EPOCH":4769,"BSTAR":0.00052945008,"MEAN_MOTION_DOT":3.807e-5,"MEAN_MOTION_DDOT":0},{"OBJECT_NAME":"DRESDEN","OBJECT_ID":"2025-185A","EPOCH":"2026-03-09T17:16:36.875136","MEAN_MOTION":14.773332,"ECCENTRICITY":0.00118457,"INCLINATION":97.9609,"RA_OF_ASC_NODE":153.1305,"ARG_OF_PERICENTER":62.0124,"MEAN_ANOMALY":298.2283,"EPHEMERIS_TYPE":0,"CLASSIFICATION_TYPE":"U","NORAD_CAT_ID":65297,"ELEMENT_SET_NO":999,"REV_AT_EPOCH":2913,"BSTAR":0.0014833733,"MEAN_MOTION_DOT":0.0001051,"MEAN_MOTION_DDOT":0}]
