KUIPER-00011            
1 63727U 25088D   26068.26052959  .00003807  00000+0  52945-3 0  9993
2 63727  51.8995  92.5537 0000997 103.2236 256.8837 14.79821634 47697
DRESDEN                 
1 65297U 25185A   26068.71987124  .00010510  00000+0  14834-2 0  9999
2 65297  97.9609 153.1305 0011846  62.0124 298.2283 14.77333200 29133
